[{"OBJECT_NAME":"FLOCK 4G-6","OBJECT_ID":"2025-009BD","EPOCH":"2026-03-09T17:03:16.973568","MEAN_MOTION":15.27432125,"ECCENTRICITY":0.00023795,"INCLINATION":97.398,"RA_OF_ASC_NODE":150.7943,"ARG_OF_PERICENTER":348.2637,"MEAN_ANOMALY":11.8546,"EPHEMERIS_TYPE":0,"CLASSIFICATION_TYPE":"U","NORAD_CAT_ID":62660,"ELEMENT_SET_NO":999,"REV_AT_EPOCH":12130,"BSTAR":0.00045909501,"MEAN_MOTION_DOT":0.00012261,"MEAN_MOTION_DDOT":0},{"OBJECT_NAME":"STARLINK-33821","OBJECT_ID":"2025-093Z","EPOCH":"2026-03-09T01:24:43.857216","MEAN_MOTION":15.27586901,"ECCENTRICITY":9.015e-5,"INCLINATION":43.0003,"RA_OF_ASC_NODE":81.5957,"ARG_OF_PERICENTER":277.1325,"MEAN_ANOMALY":82.9424,"EPHEMERIS_TYPE":0,"CLASSIFICATION_TYPE":"U","NORAD_CAT_ID":63859,"ELEMENT_SET_NO":999,"REV_AT_EPOCH":4785,"BSTAR":0.0011694757,"MEAN_MOTION_DOT":0.00032066,"MEAN_MOTION_DDOT":0}]
